{
  "type": "FeatureCollection",
  "features": [
    {
      "type": "Feature",
      "properties": {
        "norad_id": 40938,
        "name": "BEIDOU-3S IGSO-2S (C56)",
        "group": "beidou",
        "lat": 23.3115116058254,
        "lon": 59.30357226914255,
        "alt_km": 35587.81270302513,
        "timestamp": "2025-12-24T14:43:29.266907+00:00",
        "meta_object_name": "BEIDOU-3S IGSO-2S (C56)",
        "meta_object_id": "2015-053A",
        "meta_epoch": "2025-12-23T17:00:29.513952",
        "meta_mean_motion": 1.00267867,
        "meta_eccentricity": 0.00606419,
        "meta_inclination": 49.4936,
        "meta_ra_of_asc_node": 260.877,
        "meta_arg_of_pericenter": 188.6586,
        "meta_mean_anomaly": 353.8857,
        "meta_ephemeris_type": 0,
        "meta_classification_type": "U",
        "meta_norad_cat_id": 40938,
        "meta_element_set_no": 999,
        "meta_rev_at_epoch": 3759,
        "meta_bstar": 0,
        "meta_mean_motion_dot": -1.09e-06,
        "meta_mean_motion_ddot": 0,
        "tle_line1": "1 40938U 15053A   25357.70867493 -.00000109  00000+0  00000+0 0  9993",
        "tle_line2": "2 40938  49.4936 260.8770 0060641 188.6586 353.8857  1.00267867 37590"
      },
      "geometry": {
        "type": "Point",
        "coordinates": [
          59.30357226914255,
          23.3115116058254
        ]
      }
    },
    {
      "type": "Feature",
      "properties": {
        "norad_id": 41434,
        "name": "BEIDOU-2 IGSO-6 (C13)",
        "group": "beidou",
        "lat": 7.341895838209533,
        "lon": 44.08210371424572,
        "alt_km": 35971.91829109297,
        "timestamp": "2025-12-24T14:43:29.266919+00:00",
        "meta_object_name": "BEIDOU-2 IGSO-6 (C13)",
        "meta_object_id": "2016-021A",
        "meta_epoch": "2025-12-18T14:33:38.837664",
        "meta_mean_motion": 1.00292299,
        "meta_eccentricity": 0.00610054,
        "meta_inclination": 59.9732,
        "meta_ra_of_asc_node": 39.8392,
        "meta_arg_of_pericenter": 230.2031,
        "meta_mean_anomaly": 129.1398,
        "meta_ephemeris_type": 0,
        "meta_classification_type": "U",
        "meta_norad_cat_id": 41434,
        "meta_element_set_no": 999,
        "meta_rev_at_epoch": 3566,
        "meta_bstar": 0,
        "meta_mean_motion_dot": -1.41e-06,
        "meta_mean_motion_ddot": 0,
        "tle_line1": "1 41434U 16021A   25352.60669951 -.00000141  00000+0  00000+0 0  9990",
        "tle_line2": "2 41434  59.9732  39.8392 0061005 230.2031 129.1398  1.00292299 35667"
      },
      "geometry": {
        "type": "Point",
        "coordinates": [
          44.08210371424572,
          7.341895838209533
        ]
      }
    },
    {
      "type": "Feature",
      "properties": {
        "norad_id": 41586,
        "name": "BEIDOU-2 G7 (C03)",
        "group": "beidou",
        "lat": -0.08357151282862153,
        "lon": 64.68214870306298,
        "alt_km": 35764.8564049096,
        "timestamp": "2025-12-24T14:43:29.266932+00:00",
        "meta_object_name": "BEIDOU-2 G7 (C03)",
        "meta_object_id": "2016-037A",
        "meta_epoch": "2025-12-24T06:46:33.984192",
        "meta_mean_motion": 1.00269256,
        "meta_eccentricity": 0.000522,
        "meta_inclination": 1.7834,
        "meta_ra_of_asc_node": 67.8882,
        "meta_arg_of_pericenter": 1.209,
        "meta_mean_anomaly": 236.0405,
        "meta_ephemeris_type": 0,
        "meta_classification_type": "U",
        "meta_norad_cat_id": 41586,
        "meta_element_set_no": 999,
        "meta_rev_at_epoch": 513,
        "meta_bstar": 0,
        "meta_mean_motion_dot": -3.33e-06,
        "meta_mean_motion_ddot": 0,
        "tle_line1": "1 41586U 16037A   25358.28233778 -.00000333  00000+0  00000+0 0  9992",
        "tle_line2": "2 41586   1.7834  67.8882 0005220   1.2090 236.0405  1.00269256  5139"
      },
      "geometry": {
        "type": "Point",
        "coordinates": [
          64.68214870306298,
          -0.08357151282862153
        ]
      }
    },
    {
      "type": "Feature",
      "properties": {
        "norad_id": 43001,
        "name": "BEIDOU-3 M1 (C19)",
        "group": "beidou",
        "lat": -5.091944548852066,
        "lon": 65.48574906479267,
        "alt_km": 21511.821165676643,
        "timestamp": "2025-12-24T14:43:29.266944+00:00",
        "meta_object_name": "BEIDOU-3 M1 (C19)",
        "meta_object_id": "2017-069A",
        "meta_epoch": "2025-12-24T02:03:22.336416",
        "meta_mean_motion": 1.86231054,
        "meta_eccentricity": 0.00099,
        "meta_inclination": 56.5357,
        "meta_ra_of_asc_node": 68.8595,
        "meta_arg_of_pericenter": 302.4649,
        "meta_mean_anomaly": 57.4938,
        "meta_ephemeris_type": 0,
        "meta_classification_type": "U",
        "meta_norad_cat_id": 43001,
        "meta_element_set_no": 999,
        "meta_rev_at_epoch": 5534,
        "meta_bstar": 0,
        "meta_mean_motion_dot": -2.4e-07,
        "meta_mean_motion_ddot": 0,
        "tle_line1": "1 43001U 17069A   25358.08567519 -.00000024  00000+0  00000+0 0  9990",
        "tle_line2": "2 43001  56.5357  68.8595 0009900 302.4649  57.4938  1.86231054 55341"
      },
      "geometry": {
        "type": "Point",
        "coordinates": [
          65.48574906479267,
          -5.091944548852066
        ]
      }
    },
    {
      "type": "Feature",
      "properties": {
        "norad_id": 43002,
        "name": "BEIDOU-3 M2 (C20)",
        "group": "beidou",
        "lat": 28.788096480581004,
        "lon": 90.17857921724153,
        "alt_km": 21517.372308859074,
        "timestamp": "2025-12-24T14:43:29.266955+00:00",
        "meta_object_name": "BEIDOU-3 M2 (C20)",
        "meta_object_id": "2017-069B",
        "meta_epoch": "2025-12-22T09:54:58.962816",
        "meta_mean_motion": 1.86231087,
        "meta_eccentricity": 0.00067293,
        "meta_inclination": 56.5339,
        "meta_ra_of_asc_node": 68.9503,
        "meta_arg_of_pericenter": 327.7398,
        "meta_mean_anomaly": 32.2697,
        "meta_ephemeris_type": 0,
        "meta_classification_type": "U",
        "meta_norad_cat_id": 43002,
        "meta_element_set_no": 999,
        "meta_rev_at_epoch": 5530,
        "meta_bstar": 0,
        "meta_mean_motion_dot": -2.8e-07,
        "meta_mean_motion_ddot": 0,
        "tle_line1": "1 43002U 17069B   25356.41318244 -.00000028  00000+0  00000+0 0  9999",
        "tle_line2": "2 43002  56.5339  68.9503 0006729 327.7398  32.2697  1.86231087 55304"
      },
      "geometry": {
        "type": "Point",
        "coordinates": [
          90.17857921724153,
          28.788096480581004
        ]
      }
    },
    {
      "type": "Feature",
      "properties": {
        "norad_id": 43107,
        "name": "BEIDOU-3 M7 (C27)",
        "group": "beidou",
        "lat": -22.252714486253414,
        "lon": 145.35508432215457,
        "alt_km": 21537.28821342548,
        "timestamp": "2025-12-24T14:43:29.266967+00:00",
        "meta_object_name": "BEIDOU-3 M7 (C27)",
        "meta_object_id": "2018-003A",
        "meta_epoch": "2025-12-23T05:31:08.538816",
        "meta_mean_motion": 1.86232625,
        "meta_eccentricity": 0.0002961,
        "meta_inclination": 54.4874,
        "meta_ra_of_asc_node": 308.4506,
        "meta_arg_of_pericenter": 66.5422,
        "meta_mean_anomaly": 293.4915,
        "meta_ephemeris_type": 0,
        "meta_classification_type": "U",
        "meta_norad_cat_id": 43107,
        "meta_element_set_no": 999,
        "meta_rev_at_epoch": 5407,
        "meta_bstar": 0,
        "meta_mean_motion_dot": -5.5e-07,
        "meta_mean_motion_ddot": 0,
        "tle_line1": "1 43107U 18003A   25357.22995994 -.00000055  00000+0  00000+0 0  9997",
        "tle_line2": "2 43107  54.4874 308.4506 0002961  66.5422 293.4915  1.86232625 54072"
      },
      "geometry": {
        "type": "Point",
        "coordinates": [
          145.35508432215457,
          -22.252714486253414
        ]
      }
    },
    {
      "type": "Feature",
      "properties": {
        "norad_id": 43108,
        "name": "BEIDOU-3 M8 (C28)",
        "group": "beidou",
        "lat": -47.258603431480104,
        "lon": 178.91371031351358,
        "alt_km": 21522.85334261214,
        "timestamp": "2025-12-24T14:43:29.266979+00:00",
        "meta_object_name": "BEIDOU-3 M8 (C28)",
        "meta_object_id": "2018-003B",
        "meta_epoch": "2025-12-23T17:05:08.287008",
        "meta_mean_motion": 1.86231111,
        "meta_eccentricity": 0.00045887,
        "meta_inclination": 54.4799,
        "meta_ra_of_asc_node": 308.4164,
        "meta_arg_of_pericenter": 279.1065,
        "meta_mean_anomaly": 80.8458,
        "meta_ephemeris_type": 0,
        "meta_classification_type": "U",
        "meta_norad_cat_id": 43108,
        "meta_element_set_no": 999,
        "meta_rev_at_epoch": 5409,
        "meta_bstar": 0,
        "meta_mean_motion_dot": -5.4e-07,
        "meta_mean_motion_ddot": 0,
        "tle_line1": "1 43108U 18003B   25357.71190147 -.00000054  00000+0  00000+0 0  9998",
        "tle_line2": "2 43108  54.4799 308.4164 0004588 279.1065  80.8458  1.86231111 54092"
      },
      "geometry": {
        "type": "Point",
        "coordinates": [
          178.91371031351358,
          -47.258603431480104
        ]
      }
    }
  ]
}